[{"OBJECT_NAME":"YAOGAN-36 04C","OBJECT_ID":"2022-171E","EPOCH":"2026-03-09T18:55:44.889600","MEAN_MOTION":15.29852307,"ECCENTRICITY":0.00066848,"INCLINATION":34.9797,"RA_OF_ASC_NODE":96.6578,"ARG_OF_PERICENTER":275.3761,"MEAN_ANOMALY":84.6192,"EPHEMERIS_TYPE":0,"CLASSIFICATION_TYPE":"U","NORAD_CAT_ID":54750,"ELEMENT_SET_NO":999,"REV_AT_EPOCH":18024,"BSTAR":0.00054591902,"MEAN_MOTION_DOT":0.00016196,"MEAN_MOTION_DDOT":0},{"OBJECT_NAME":"STARLINK-30369","OBJECT_ID":"2023-134L","EPOCH":"2026-03-09T09:33:22.683744","MEAN_MOTION":15.27583915,"ECCENTRICITY":5.237e-5,"INCLINATION":42.9965,"RA_OF_ASC_NODE":195.9954,"ARG_OF_PERICENTER":285.4922,"MEAN_ANOMALY":74.5872,"EPHEMERIS_TYPE":0,"CLASSIFICATION_TYPE":"U","NORAD_CAT_ID":57781,"ELEMENT_SET_NO":999,"REV_AT_EPOCH":13946,"BSTAR":1.0491888e-5,"MEAN_MOTION_DOT":2.7e-7,"MEAN_MOTION_DDOT":0}]
